{
 "generated_at": "2026-07-07T08:23:21Z",
 "sources": [
  {
   "name": "CelesTrak",
   "url": "https://celestrak.org/NORAD/elements/",
   "license": "frei verfügbar; Attribution. Ursprünglich USSPACECOM/Space-Track."
  },
  {
   "name": "GCAT (J. McDowell, planet4589.org)",
   "url": "https://planet4589.org/space/gcat/",
   "license": "CC-BY 4.0"
  }
 ],
 "satellites": [
  {
   "norad": 43437,
   "name": "SENTINEL-3B",
   "intl": "2018-039A",
   "group": "resource",
   "gcat": {
    "class": "C",
    "category": "IMG",
    "owner": "COPERN/ESA",
    "state": "I-EU"
   },
   "omm": {
    "OBJECT_NAME": "SENTINEL-3B",
    "OBJECT_ID": "2018-039A",
    "EPOCH": "2026-07-06T16:27:33.590880",
    "MEAN_MOTION": 14.26740398,
    "ECCENTRICITY": 0.000096,
    "INCLINATION": 98.6239,
    "RA_OF_ASC_NODE": 254.9376,
    "ARG_OF_PERICENTER": 118.291,
    "MEAN_ANOMALY": 241.8368,
    "EPHEMERIS_TYPE": 0,
    "CLASSIFICATION_TYPE": "U",
    "NORAD_CAT_ID": 43437,
    "ELEMENT_SET_NO": 999,
    "REV_AT_EPOCH": 42690,
    "BSTAR": 0.00005845,
    "MEAN_MOTION_DOT": 9.8e-7,
    "MEAN_MOTION_DDOT": 0
   }
  },
  {
   "norad": 42969,
   "name": "SENTINEL-5P",
   "intl": "2017-064A",
   "group": "resource",
   "gcat": {
    "class": "C",
    "category": "IMG",
    "owner": "COPERN/ESA",
    "state": "I-EU"
   },
   "omm": {
    "OBJECT_NAME": "SENTINEL-5P",
    "OBJECT_ID": "2017-064A",
    "EPOCH": "2026-07-06T17:26:08.004192",
    "MEAN_MOTION": 14.19522294,
    "ECCENTRICITY": 0.0001099,
    "INCLINATION": 98.7927,
    "RA_OF_ASC_NODE": 129.7191,
    "ARG_OF_PERICENTER": 92.1824,
    "MEAN_ANOMALY": 267.9478,
    "EPHEMERIS_TYPE": 0,
    "CLASSIFICATION_TYPE": "U",
    "NORAD_CAT_ID": 42969,
    "ELEMENT_SET_NO": 999,
    "REV_AT_EPOCH": 45233,
    "BSTAR": 0.000044456,
    "MEAN_MOTION_DOT": 4.9e-7,
    "MEAN_MOTION_DDOT": 0
   }
  },
  {
   "norad": 46984,
   "name": "SENTINEL-6A",
   "intl": "2020-086A",
   "group": "resource",
   "gcat": {
    "class": "C",
    "category": "EOSCI",
    "owner": "COPERN/ESA",
    "state": "I-EU"
   },
   "omm": {
    "OBJECT_NAME": "SENTINEL-6A",
    "OBJECT_ID": "2020-086A",
    "EPOCH": "2026-07-06T03:15:51.436800",
    "MEAN_MOTION": 12.80930112,
    "ECCENTRICITY": 0.0007829,
    "INCLINATION": 66.0415,
    "RA_OF_ASC_NODE": 95.6969,
    "ARG_OF_PERICENTER": 270.0295,
    "MEAN_ANOMALY": 89.9823,
    "EPHEMERIS_TYPE": 0,
    "CLASSIFICATION_TYPE": "U",
    "NORAD_CAT_ID": 46984,
    "ELEMENT_SET_NO": 999,
    "REV_AT_EPOCH": 26275,
    "BSTAR": 0.00008784,
    "MEAN_MOTION_DOT": -4.1e-7,
    "MEAN_MOTION_DDOT": 0
   }
  },
  {
   "norad": 66514,
   "name": "SENTINEL-6B",
   "intl": "2025-264A",
   "group": "resource",
   "gcat": {
    "class": "C",
    "category": "EOSCI",
    "owner": "COPERN/ESA",
    "state": "I-EU"
   },
   "omm": {
    "OBJECT_NAME": "SENTINEL-6B",
    "OBJECT_ID": "2025-264A",
    "EPOCH": "2026-07-06T03:16:21.504000",
    "MEAN_MOTION": 12.80930081,
    "ECCENTRICITY": 0.0007892,
    "INCLINATION": 66.0415,
    "RA_OF_ASC_NODE": 95.8222,
    "ARG_OF_PERICENTER": 268.8789,
    "MEAN_ANOMALY": 91.1322,
    "EPHEMERIS_TYPE": 0,
    "CLASSIFICATION_TYPE": "U",
    "NORAD_CAT_ID": 66514,
    "ELEMENT_SET_NO": 999,
    "REV_AT_EPOCH": 2959,
    "BSTAR": 0.000068988,
    "MEAN_MOTION_DOT": -4.5e-7,
    "MEAN_MOTION_DDOT": 0
   }
  },
  {
   "norad": 28220,
   "name": "SHIYAN-1 (SY-1)",
   "intl": "2004-012A",
   "group": "resource",
   "gcat": {
    "class": null,
    "category": null,
    "owner": null,
    "state": null
   },
   "omm": {
    "OBJECT_NAME": "SHIYAN-1 (SY-1)",
    "OBJECT_ID": "2004-012A",
    "EPOCH": "2026-07-06T21:11:46.720896",
    "MEAN_MOTION": 15.34302109,
    "ECCENTRICITY": 0.0004165,
    "INCLINATION": 97.868,
    "RA_OF_ASC_NODE": 267.2376,
    "ARG_OF_PERICENTER": 314.4743,
    "MEAN_ANOMALY": 45.6158,
    "EPHEMERIS_TYPE": 0,
    "CLASSIFICATION_TYPE": "U",
    "NORAD_CAT_ID": 28220,
    "ELEMENT_SET_NO": 999,
    "REV_AT_EPOCH": 21411,
    "BSTAR": 0.00034239,
    "MEAN_MOTION_DOT": 0.0001129,
    "MEAN_MOTION_DDOT": 0
   }
  },
  {
   "norad": 28893,
   "name": "SINAH 1",
   "intl": "2005-043D",
   "group": "resource",
   "gcat": {
    "class": null,
    "category": null,
    "owner": null,
    "state": null
   },
   "omm": {
    "OBJECT_NAME": "SINAH 1",
    "OBJECT_ID": "2005-043D",
    "EPOCH": "2026-07-06T20:56:21.344928",
    "MEAN_MOTION": 14.64171622,
    "ECCENTRICITY": 0.0013812,
    "INCLINATION": 98.2884,
    "RA_OF_ASC_NODE": 322.3129,
    "ARG_OF_PERICENTER": 210.1044,
    "MEAN_ANOMALY": 149.9365,
    "EPHEMERIS_TYPE": 0,
    "CLASSIFICATION_TYPE": "U",
    "NORAD_CAT_ID": 28893,
    "ELEMENT_SET_NO": 999,
    "REV_AT_EPOCH": 10340,
    "BSTAR": 0.000069215,
    "MEAN_MOTION_DOT": 0.00000315,
    "MEAN_MOTION_DDOT": 0
   }
  },
  {
   "norad": 39418,
   "name": "SKYSAT-A",
   "intl": "2013-066C",
   "group": "resource",
   "gcat": {
    "class": "B",
    "category": "IMG",
    "owner": "SKYBOX",
    "state": "US"
   },
   "omm": {
    "OBJECT_NAME": "SKYSAT-A",
    "OBJECT_ID": "2013-066C",
    "EPOCH": "2026-07-06T16:49:21.119232",
    "MEAN_MOTION": 15.13083788,
    "ECCENTRICITY": 0.001987,
    "INCLINATION": 97.3802,
    "RA_OF_ASC_NODE": 236.4763,
    "ARG_OF_PERICENTER": 244.4924,
    "MEAN_ANOMALY": 115.4252,
    "EPHEMERIS_TYPE": 0,
    "CLASSIFICATION_TYPE": "U",
    "NORAD_CAT_ID": 39418,
    "ELEMENT_SET_NO": 999,
    "REV_AT_EPOCH": 69143,
    "BSTAR": 0.00015799,
    "MEAN_MOTION_DOT": 0.00002744,
    "MEAN_MOTION_DDOT": 0
   }
  },
  {
   "norad": 40072,
   "name": "SKYSAT-B",
   "intl": "2014-037D",
   "group": "resource",
   "gcat": {
    "class": "B",
    "category": "IMG",
    "owner": "SKYBOX",
    "state": "US"
   },
   "omm": {
    "OBJECT_NAME": "SKYSAT-B",
    "OBJECT_ID": "2014-037D",
    "EPOCH": "2026-07-06T08:33:26.320896",
    "MEAN_MOTION": 14.88077956,
    "ECCENTRICITY": 0.00048378,
    "INCLINATION": 98.3848,
    "RA_OF_ASC_NODE": 147.4157,
    "ARG_OF_PERICENTER": 202.7715,
    "MEAN_ANOMALY": 157.3286,
    "EPHEMERIS_TYPE": 0,
    "CLASSIFICATION_TYPE": "U",
    "NORAD_CAT_ID": 40072,
    "ELEMENT_SET_NO": 999,
    "REV_AT_EPOCH": 64881,
    "BSTAR": 0.00015917632,
    "MEAN_MOTION_DOT": 0.00001402,
    "MEAN_MOTION_DDOT": 0
   }
  },
  {
   "norad": 41601,
   "name": "SKYSAT-C1",
   "intl": "2016-040C",
   "group": "resource",
   "gcat": {
    "class": "B",
    "category": "IMG",
    "owner": "TBELLA",
    "state": "US"
   },
   "omm": {
    "OBJECT_NAME": "SKYSAT-C1",
    "OBJECT_ID": "2016-040C",
    "EPOCH": "2026-07-06T14:58:56.636832",
    "MEAN_MOTION": 15.36647042,
    "ECCENTRICITY": 0.0001234,
    "INCLINATION": 96.9556,
    "RA_OF_ASC_NODE": 218.2931,
    "ARG_OF_PERICENTER": 14.293,
    "MEAN_ANOMALY": 345.835,
    "EPHEMERIS_TYPE": 0,
    "CLASSIFICATION_TYPE": "U",
    "NORAD_CAT_ID": 41601,
    "ELEMENT_SET_NO": 999,
    "REV_AT_EPOCH": 56085,
    "BSTAR": 0.0002164,
    "MEAN_MOTION_DOT": 0.00007669,
    "MEAN_MOTION_DDOT": 0
   }
  },
  {
   "norad": 42988,
   "name": "SKYSAT-C10",
   "intl": "2017-068B",
   "group": "resource",
   "gcat": {
    "class": "B",
    "category": "IMG",
    "owner": "PLABST",
    "state": "US"
   },
   "omm": {
    "OBJECT_NAME": "SKYSAT-C10",
    "OBJECT_ID": "2017-068B",
    "EPOCH": "2026-07-06T20:26:09.286368",
    "MEAN_MOTION": 15.34999647,
    "ECCENTRICITY": 0.0001295,
    "INCLINATION": 97.4529,
    "RA_OF_ASC_NODE": 324.897,
    "ARG_OF_PERICENTER": 109.0995,
    "MEAN_ANOMALY": 251.0388,
    "EPHEMERIS_TYPE": 0,
    "CLASSIFICATION_TYPE": "U",
    "NORAD_CAT_ID": 42988,
    "ELEMENT_SET_NO": 999,
    "REV_AT_EPOCH": 48537,
    "BSTAR": 0.00025401,
    "MEAN_MOTION_DOT": 0.00008544,
    "MEAN_MOTION_DDOT": 0
   }
  }
 ]
}
